{
  "type": "FeatureCollection",
  "features": [
    {
      "type": "Feature",
      "properties": {
        "norad_id": 66794,
        "name": "STARLINK-36062",
        "group": "last-30-days",
        "lat": 28.23607429653545,
        "lon": -67.25468089760635,
        "alt_km": 301.24833683977795,
        "timestamp": "2025-12-11T20:41:13.848458+00:00",
        "meta_object_name": "STARLINK-36062",
        "meta_object_id": "2025-278D",
        "meta_epoch": "2025-12-11T14:00:01.999872",
        "meta_mean_motion": 15.89799515,
        "meta_eccentricity": 0.00019957,
        "meta_inclination": 42.998,
        "meta_ra_of_asc_node": 259.2793,
        "meta_arg_of_pericenter": 262.7052,
        "meta_mean_anomaly": 345.0796,
        "meta_ephemeris_type": 0,
        "meta_classification_type": "U",
        "meta_norad_cat_id": 66794,
        "meta_element_set_no": 999,
        "meta_rev_at_epoch": 277,
        "meta_bstar": -0.0038733686,
        "meta_mean_motion_dot": -0.01059995,
        "meta_mean_motion_ddot": 0,
        "tle_line1": "1 66794U 25278D   25345.58335648 -.01059995  00000+0 -38734-2 0  9993",
        "tle_line2": "2 66794  42.9980 259.2793 0001995 262.7052 345.0796 15.89799515  2770"
      },
      "geometry": {
        "type": "Point",
        "coordinates": [
          -67.25468089760635,
          28.23607429653545
        ]
      }
    },
    {
      "type": "Feature",
      "properties": {
        "norad_id": 66795,
        "name": "STARLINK-36047",
        "group": "last-30-days",
        "lat": 30.870620092364806,
        "lon": -62.551105715214355,
        "alt_km": 300.7326104179192,
        "timestamp": "2025-12-11T20:41:13.848468+00:00",
        "meta_object_name": "STARLINK-36047",
        "meta_object_id": "2025-278E",
        "meta_epoch": "2025-12-11T14:00:01.999872",
        "meta_mean_motion": 15.89879746,
        "meta_eccentricity": 0.00019297,
        "meta_inclination": 42.998,
        "meta_ra_of_asc_node": 259.2671,
        "meta_arg_of_pericenter": 259.1281,
        "meta_mean_anomaly": 353.4567,
        "meta_ephemeris_type": 0,
        "meta_classification_type": "U",
        "meta_norad_cat_id": 66795,
        "meta_element_set_no": 999,
        "meta_rev_at_epoch": 267,
        "meta_bstar": -0.0039527171,
        "meta_mean_motion_dot": -0.01083163,
        "meta_mean_motion_ddot": 0,
        "tle_line1": "1 66795U 25278E   25345.58335648 -.01083163  00000+0 -39527-2 0  9999",
        "tle_line2": "2 66795  42.9980 259.2671 0001929 259.1281 353.4567 15.89879746  2670"
      },
      "geometry": {
        "type": "Point",
        "coordinates": [
          -62.551105715214355,
          30.870620092364806
        ]
      }
    },
    {
      "type": "Feature",
      "properties": {
        "norad_id": 66796,
        "name": "STARLINK-35964",
        "group": "last-30-days",
        "lat": -26.487403707720325,
        "lon": -135.48208678620023,
        "alt_km": 266.93900209325784,
        "timestamp": "2025-12-11T20:41:13.848480+00:00",
        "meta_object_name": "STARLINK-35964",
        "meta_object_id": "2025-278F",
        "meta_epoch": "2025-12-11T14:00:01.999872",
        "meta_mean_motion": 16.04162229,
        "meta_eccentricity": 0.00017844,
        "meta_inclination": 42.9959,
        "meta_ra_of_asc_node": 258.615,
        "meta_arg_of_pericenter": 258.3075,
        "meta_mean_anomaly": 250.3064,
        "meta_ephemeris_type": 0,
        "meta_classification_type": "U",
        "meta_norad_cat_id": 66796,
        "meta_element_set_no": 999,
        "meta_rev_at_epoch": 261,
        "meta_bstar": -0.0022014548,
        "meta_mean_motion_dot": -0.0149378,
        "meta_mean_motion_ddot": 0.00071587382,
        "tle_line1": "1 66796U 25278F   25345.58335648 -.01493780  71587-3 -22015-2 0  9996",
        "tle_line2": "2 66796  42.9959 258.6150 0001784 258.3075 250.3064 16.04162229  2613"
      },
      "geometry": {
        "type": "Point",
        "coordinates": [
          -135.48208678620023,
          -26.487403707720325
        ]
      }
    },
    {
      "type": "Feature",
      "properties": {
        "norad_id": 66797,
        "name": "STARLINK-36099",
        "group": "last-30-days",
        "lat": 33.60897099792599,
        "lon": -56.9700233803142,
        "alt_km": 300.2407679656999,
        "timestamp": "2025-12-11T20:41:13.848490+00:00",
        "meta_object_name": "STARLINK-36099",
        "meta_object_id": "2025-278G",
        "meta_epoch": "2025-12-11T14:00:01.999872",
        "meta_mean_motion": 15.89966226,
        "meta_eccentricity": 0.00019619,
        "meta_inclination": 42.998,
        "meta_ra_of_asc_node": 259.2535,
        "meta_arg_of_pericenter": 258.8124,
        "meta_mean_anomaly": 359.1653,
        "meta_ephemeris_type": 0,
        "meta_classification_type": "U",
        "meta_norad_cat_id": 66797,
        "meta_element_set_no": 999,
        "meta_rev_at_epoch": 283,
        "meta_bstar": -0.0041514163,
        "meta_mean_motion_dot": -0.01135571,
        "meta_mean_motion_ddot": 0,
        "tle_line1": "1 66797U 25278G   25345.58335648 -.01135571  00000+0 -41514-2 0  9991",
        "tle_line2": "2 66797  42.9980 259.2535 0001961 258.8124 359.1653 15.89966226  2836"
      },
      "geometry": {
        "type": "Point",
        "coordinates": [
          -56.9700233803142,
          33.60897099792599
        ]
      }
    },
    {
      "type": "Feature",
      "properties": {
        "norad_id": 66798,
        "name": "STARLINK-36041",
        "group": "last-30-days",
        "lat": 34.55264128702362,
        "lon": -54.827100953827625,
        "alt_km": 300.02169611448153,
        "timestamp": "2025-12-11T20:41:13.848500+00:00",
        "meta_object_name": "STARLINK-36041",
        "meta_object_id": "2025-278H",
        "meta_epoch": "2025-12-11T14:00:01.999872",
        "meta_mean_motion": 15.90005336,
        "meta_eccentricity": 0.00019879,
        "meta_inclination": 42.998,
        "meta_ra_of_asc_node": 259.2484,
        "meta_arg_of_pericenter": 261.2929,
        "meta_mean_anomaly": 358.6624,
        "meta_ephemeris_type": 0,
        "meta_classification_type": "U",
        "meta_norad_cat_id": 66798,
        "meta_element_set_no": 999,
        "meta_rev_at_epoch": 261,
        "meta_bstar": -0.004213059,
        "meta_mean_motion_dot": -0.01152429,
        "meta_mean_motion_ddot": 0,
        "tle_line1": "1 66798U 25278H   25345.58335648 -.01152429  00000+0 -42131-2 0  9999",
        "tle_line2": "2 66798  42.9980 259.2484 0001987 261.2929 358.6624 15.90005336  2615"
      },
      "geometry": {
        "type": "Point",
        "coordinates": [
          -54.827100953827625,
          34.55264128702362
        ]
      }
    },
    {
      "type": "Feature",
      "properties": {
        "norad_id": 66799,
        "name": "STARLINK-36044",
        "group": "last-30-days",
        "lat": 35.57017051904864,
        "lon": -52.353391051608305,
        "alt_km": 299.8114124071035,
        "timestamp": "2025-12-11T20:41:13.848510+00:00",
        "meta_object_name": "STARLINK-36044",
        "meta_object_id": "2025-278J",
        "meta_epoch": "2025-12-11T14:00:01.999872",
        "meta_mean_motion": 15.90037961,
        "meta_eccentricity": 0.00019582,
        "meta_inclination": 42.998,
        "meta_ra_of_asc_node": 259.2428,
        "meta_arg_of_pericenter": 259.9527,
        "meta_mean_anomaly": 2.2427,
        "meta_ephemeris_type": 0,
        "meta_classification_type": "U",
        "meta_norad_cat_id": 66799,
        "meta_element_set_no": 999,
        "meta_rev_at_epoch": 277,
        "meta_bstar": -0.0042531558,
        "meta_mean_motion_dot": -0.01163735,
        "meta_mean_motion_ddot": 0,
        "tle_line1": "1 66799U 25278J   25345.58335648 -.01163735  00000+0 -42532-2 0  9997",
        "tle_line2": "2 66799  42.9980 259.2428 0001958 259.9527   2.2427 15.90037961  2779"
      },
      "geometry": {
        "type": "Point",
        "coordinates": [
          -52.353391051608305,
          35.57017051904864
        ]
      }
    },
    {
      "type": "Feature",
      "properties": {
        "norad_id": 66800,
        "name": "STARLINK-35996",
        "group": "last-30-days",
        "lat": 37.43741696459666,
        "lon": -47.24434852911333,
        "alt_km": 299.399730018622,
        "timestamp": "2025-12-11T20:41:13.848522+00:00",
        "meta_object_name": "STARLINK-35996",
        "meta_object_id": "2025-278K",
        "meta_epoch": "2025-12-11T14:00:01.999872",
        "meta_mean_motion": 15.90103087,
        "meta_eccentricity": 0.00019717,
        "meta_inclination": 42.9978,
        "meta_ra_of_asc_node": 259.2313,
        "meta_arg_of_pericenter": 261.7632,
        "meta_mean_anomaly": 4.8872,
        "meta_ephemeris_type": 0,
        "meta_classification_type": "U",
        "meta_norad_cat_id": 66800,
        "meta_element_set_no": 999,
        "meta_rev_at_epoch": 256,
        "meta_bstar": -0.0043138911,
        "meta_mean_motion_dot": -0.01181743,
        "meta_mean_motion_ddot": 0,
        "tle_line1": "1 66800U 25278K   25345.58335648 -.01181743  00000+0 -43139-2 0  9993",
        "tle_line2": "2 66800  42.9978 259.2313 0001971 261.7632   4.8872 15.90103087  2567"
      },
      "geometry": {
        "type": "Point",
        "coordinates": [
          -47.24434852911333,
          37.43741696459666
        ]
      }
    }
  ]
}